ONEWEB-0228             
1 48780U 21045P   24273.75086973  .00000125  00000+0  29789-3 0  9997
2 48780  87.9109  23.6466 0001861 104.2413 255.8924 13.15546148162092
